{
  "type": "FeatureCollection",
  "features": [
    {
      "type": "Feature",
      "properties": {
        "norad_id": 36744,
        "name": "COMS 1",
        "group": "weather",
        "lat": -3.9830953082526173,
        "lon": -35.73179114506881,
        "alt_km": 35785.73539705661,
        "timestamp": "2025-12-13T07:35:41.187282+00:00",
        "meta_object_name": "COMS 1",
        "meta_object_id": "2010-032A",
        "meta_epoch": "2025-12-12T15:21:38.695680",
        "meta_mean_motion": 1.0026781,
        "meta_eccentricity": 7.129e-05,
        "meta_inclination": 4.3408,
        "meta_ra_of_asc_node": 78.0019,
        "meta_arg_of_pericenter": 200.2431,
        "meta_mean_anomaly": 161.9119,
        "meta_ephemeris_type": 0,
        "meta_classification_type": "U",
        "meta_norad_cat_id": 36744,
        "meta_element_set_no": 999,
        "meta_rev_at_epoch": 4922,
        "meta_bstar": 0,
        "meta_mean_motion_dot": -3.34e-06,
        "meta_mean_motion_ddot": 0,
        "tle_line1": "1 36744U 10032A   25346.64003120 -.00000334  00000+0  00000+0 0  9995",
        "tle_line2": "2 36744   4.3408  78.0019 0000712 200.2431 161.9119  1.00267810 49222"
      },
      "geometry": {
        "type": "Point",
        "coordinates": [
          -35.73179114506881,
          -3.9830953082526173
        ]
      }
    },
    {
      "type": "Feature",
      "properties": {
        "norad_id": 37214,
        "name": "FENGYUN 3B",
        "group": "weather",
        "lat": 80.97486973965427,
        "lon": -67.30492540297178,
        "alt_km": 836.7900805726258,
        "timestamp": "2025-12-13T07:35:41.187292+00:00",
        "meta_object_name": "FENGYUN 3B",
        "meta_object_id": "2010-059A",
        "meta_epoch": "2025-12-13T00:53:24.160416",
        "meta_mean_motion": 14.14790654,
        "meta_eccentricity": 0.00220484,
        "meta_inclination": 98.9909,
        "meta_ra_of_asc_node": 27.0161,
        "meta_arg_of_pericenter": 356.9666,
        "meta_mean_anomaly": 111.4241,
        "meta_ephemeris_type": 0,
        "meta_classification_type": "U",
        "meta_norad_cat_id": 37214,
        "meta_element_set_no": 999,
        "meta_rev_at_epoch": 78110,
        "meta_bstar": 0.00017710493,
        "meta_mean_motion_dot": 2.97e-06,
        "meta_mean_motion_ddot": 0,
        "tle_line1": "1 37214U 10059A   25347.03708519  .00000297  00000+0  17710-3 0  9992",
        "tle_line2": "2 37214  98.9909  27.0161 0022048 356.9666 111.4241 14.14790654781109"
      },
      "geometry": {
        "type": "Point",
        "coordinates": [
          -67.30492540297178,
          80.97486973965427
        ]
      }
    },
    {
      "type": "Feature",
      "properties": {
        "norad_id": 37849,
        "name": "SUOMI NPP",
        "group": "weather",
        "lat": -57.92088978053409,
        "lon": -61.077065658630694,
        "alt_km": 835.6818252817011,
        "timestamp": "2025-12-13T07:35:41.187302+00:00",
        "meta_object_name": "SUOMI NPP",
        "meta_object_id": "2011-061A",
        "meta_epoch": "2025-12-12T23:24:50.834304",
        "meta_mean_motion": 14.19514309,
        "meta_eccentricity": 0.00022553,
        "meta_inclination": 98.7773,
        "meta_ra_of_asc_node": 284.315,
        "meta_arg_of_pericenter": 119.9127,
        "meta_mean_anomaly": 240.2274,
        "meta_ephemeris_type": 0,
        "meta_classification_type": "U",
        "meta_norad_cat_id": 37849,
        "meta_element_set_no": 999,
        "meta_rev_at_epoch": 73202,
        "meta_bstar": 9.8690097e-05,
        "meta_mean_motion_dot": 1.64e-06,
        "meta_mean_motion_ddot": 0,
        "tle_line1": "1 37849U 11061A   25346.97558836  .00000164  00000+0  98690-4 0  9997",
        "tle_line2": "2 37849  98.7773 284.3150 0002255 119.9127 240.2274 14.19514309732023"
      },
      "geometry": {
        "type": "Point",
        "coordinates": [
          -61.077065658630694,
          -57.92088978053409
        ]
      }
    },
    {
      "type": "Feature",
      "properties": {
        "norad_id": 38552,
        "name": "METEOSAT-10 (MSG-3)",
        "group": "weather",
        "lat": 2.999310850937827,
        "lon": -163.5748624063366,
        "alt_km": 35786.402812383734,
        "timestamp": "2025-12-13T07:35:41.187313+00:00",
        "meta_object_name": "METEOSAT-10 (MSG-3)",
        "meta_object_id": "2012-035B",
        "meta_epoch": "2025-12-12T22:02:27.070368",
        "meta_mean_motion": 1.00275079,
        "meta_eccentricity": 7.887e-05,
        "meta_inclination": 4.2295,
        "meta_ra_of_asc_node": 61.7247,
        "meta_arg_of_pericenter": 254.6187,
        "meta_mean_anomaly": 96.3071,
        "meta_ephemeris_type": 0,
        "meta_classification_type": "U",
        "meta_norad_cat_id": 38552,
        "meta_element_set_no": 999,
        "meta_rev_at_epoch": 4898,
        "meta_bstar": 0,
        "meta_mean_motion_dot": 6e-08,
        "meta_mean_motion_ddot": 0,
        "tle_line1": "1 38552U 12035B   25346.91836887  .00000006  00000+0  00000+0 0  9998",
        "tle_line2": "2 38552   4.2295  61.7247 0000788 254.6187  96.3071  1.00275079 48986"
      },
      "geometry": {
        "type": "Point",
        "coordinates": [
          -163.5748624063366,
          2.999310850937827
        ]
      }
    },
    {
      "type": "Feature",
      "properties": {
        "norad_id": 38771,
        "name": "METOP-B",
        "group": "weather",
        "lat": 22.41369846961906,
        "lon": -139.12213526006843,
        "alt_km": 818.1768962048209,
        "timestamp": "2025-12-13T07:35:41.187323+00:00",
        "meta_object_name": "METOP-B",
        "meta_object_id": "2012-049A",
        "meta_epoch": "2025-12-13T00:06:00.112608",
        "meta_mean_motion": 14.21408503,
        "meta_eccentricity": 0.00029229,
        "meta_inclination": 98.68,
        "meta_ra_of_asc_node": 36.9585,
        "meta_arg_of_pericenter": 143.5958,
        "meta_mean_anomaly": 216.5419,
        "meta_ephemeris_type": 0,
        "meta_classification_type": "U",
        "meta_norad_cat_id": 38771,
        "meta_element_set_no": 999,
        "meta_rev_at_epoch": 68681,
        "meta_bstar": 0.00011960543,
        "meta_mean_motion_dot": 2.18e-06,
        "meta_mean_motion_ddot": 0,
        "tle_line1": "1 38771U 12049A   25347.00416797  .00000218  00000+0  11961-3 0  9998",
        "tle_line2": "2 38771  98.6800  36.9585 0002922 143.5958 216.5419 14.21408503686810"
      },
      "geometry": {
        "type": "Point",
        "coordinates": [
          -139.12213526006843,
          22.41369846961906
        ]
      }
    },
    {
      "type": "Feature",
      "properties": {
        "norad_id": 39216,
        "name": "INSAT-3D",
        "group": "weather",
        "lat": -1.2653617010012768,
        "lon": -34.29501847507108,
        "alt_km": 35785.35751791886,
        "timestamp": "2025-12-13T07:35:41.187333+00:00",
        "meta_object_name": "INSAT-3D",
        "meta_object_id": "2013-038B",
        "meta_epoch": "2025-12-12T22:39:23.531904",
        "meta_mean_motion": 1.00269908,
        "meta_eccentricity": 0.00014344,
        "meta_inclination": 1.4455,
        "meta_ra_of_asc_node": 84.9928,
        "meta_arg_of_pericenter": 164.6717,
        "meta_mean_anomaly": 301.5993,
        "meta_ephemeris_type": 0,
        "meta_classification_type": "U",
        "meta_norad_cat_id": 39216,
        "meta_element_set_no": 999,
        "meta_rev_at_epoch": 4521,
        "meta_bstar": 0,
        "meta_mean_motion_dot": -3.26e-06,
        "meta_mean_motion_ddot": 0,
        "tle_line1": "1 39216U 13038B   25346.94402236 -.00000326  00000+0  00000+0 0  9996",
        "tle_line2": "2 39216   1.4455  84.9928 0001434 164.6717 301.5993  1.00269908 45213"
      },
      "geometry": {
        "type": "Point",
        "coordinates": [
          -34.29501847507108,
          -1.2653617010012768
        ]
      }
    },
    {
      "type": "Feature",
      "properties": {
        "norad_id": 39260,
        "name": "FENGYUN 3C",
        "group": "weather",
        "lat": 31.813818524075923,
        "lon": -40.34039960715672,
        "alt_km": 847.8981174225628,
        "timestamp": "2025-12-13T07:35:41.187343+00:00",
        "meta_object_name": "FENGYUN 3C",
        "meta_object_id": "2013-052A",
        "meta_epoch": "2025-12-13T00:39:27.870624",
        "meta_mean_motion": 14.15696413,
        "meta_eccentricity": 0.00143132,
        "meta_inclination": 98.4763,
        "meta_ra_of_asc_node": 324.6927,
        "meta_arg_of_pericenter": 195.177,
        "meta_mean_anomaly": 164.8977,
        "meta_ephemeris_type": 0,
        "meta_classification_type": "U",
        "meta_norad_cat_id": 39260,
        "meta_element_set_no": 999,
        "meta_rev_at_epoch": 63222,
        "meta_bstar": 0.00010899239,
        "meta_mean_motion_dot": 1.73e-06,
        "meta_mean_motion_ddot": 0,
        "tle_line1": "1 39260U 13052A   25347.02740591  .00000173  00000+0  10899-3 0  9990",
        "tle_line2": "2 39260  98.4763 324.6927 0014313 195.1770 164.8977 14.15696413632221"
      },
      "geometry": {
        "type": "Point",
        "coordinates": [
          -40.34039960715672,
          31.813818524075923
        ]
      }
    }
  ]
}